APRIZESAT 2             
1 28366U 04025A   22309.85775034  .00000264  00000+0  97538-4 0  9998
2 28366  98.1419 171.6255 0106196 269.8415  89.0603 14.36865800962121
SAUDICOMSAT 1           
1 28369U 04025D   22310.44640731  .00000559  00000+0  14611-3 0  9990
2 28369  98.4605 273.1106 0034662  99.6896 260.8217 14.52901434972524
SAUDICOMSAT 2           
1 28370U 04025E   22310.43073347  .00000559  00000+0  16111-3 0  9991
2 28370  98.5522 272.4642 0056476 292.2662  67.2547 14.47796026969198
APRIZESAT 1             
1 28372U 04025G   22310.14906864  .00000382  00000+0  10972-3 0  9993
2 28372  98.5132 272.2629 0045682 203.0822 156.8320 14.49882285970680
NANOSAT-1               
1 28493U 04049B   22309.29118769  .00001369  00000+0  21504-3 0  9995
2 28493  98.1181  50.2207 0004195 187.0287 173.0863 14.74208249960626
SAUDICOMSAT 7           
1 31119U 07012C   22310.42060339  .00001049  00000+0  21267-3 0  9994
2 31119  98.2002 255.0470 0059885   7.9888 352.2253 14.62239633829501
SAUDICOMSAT 6           
1 31121U 07012E   22310.40815284  .00000681  00000+0  14934-3 0  9996
2 31121  98.2395 250.3010 0077333 110.7381 250.2128 14.59004284827713
SAUDICOMSAT 5           
1 31124U 07012H   22310.38805923  .00001068  00000+0  20966-3 0  9997
2 31124  98.1696 256.4726 0050242 312.9627  46.7367 14.63983691830427
SAUDICOMSAT 3           
1 31125U 07012J   22310.40611335  .00001056  00000+0  20014-3 0  9994
2 31125  98.1355 257.8207 0041425 256.3561 103.3027 14.65831619831372
SAUDICOMSAT 4           
1 31127U 07012L   22310.43281323  .00000925  00000+0  19350-3 0  9994
2 31127  98.2225 253.4748 0068755  56.6777 304.0982 14.60740429828669
APRIZESAT 4             
1 35684U 09041D   22310.03635050  .00000920  00000+0  12786-3 0  9997
2 35684  98.3062 328.5169 0045374 257.2072 102.4066 14.79816866716052
APRIZESAT 3             
1 35686U 09041F   22310.18226887  .00001628  00000+0  17446-3 0  9993
2 35686  98.1039  39.9905 0073021  83.2843 277.6676 14.88216795719735
AISSAT 1                
1 36797U 10035C   22310.47845846  .00002265  00000+0  25627-3 0  9994
2 36797  98.2358 139.7169 0012063  70.5872 289.6646 14.87478499667681
S-NET D                 
1 43186U 18014G   22310.15899797  .00003889  00000+0  32973-3 0  9993
2 43186  97.6481 213.1289 0010625 168.2987 191.8484 14.98492758260134
S-NET B                 
1 43187U 18014H   22310.02578700  .00004375  00000+0  37031-3 0  9999
2 43187  97.6475 212.9428 0010622 168.8249 191.3211 14.98490175260116
S-NET A                 
1 43188U 18014J   22310.15964515  .00003863  00000+0  32751-3 0  9992
2 43188  97.6484 213.1458 0010595 168.4002 191.7467 14.98490653260135
S-NET C                 
1 43189U 18014K   22309.69320098  .00004374  00000+0  37026-3 0  9990
2 43189  97.6474 212.6036 0010488 169.8882 190.2553 14.98484146258613
SALSAT                  
1 46495U 20068K   22309.73270370  .00005132  00000+0  36287-3 0  9998
2 46495  97.7420 251.2137 0016780 153.9166 206.2910 15.05220205115439
